"CCSDS_OMM_VERS","COMMENT","CREATION_DATE","ORIGINATOR","OBJECT_NAME","OBJECT_ID","CENTER_NAME","REF_FRAME","TIME_SYSTEM","MEAN_ELEMENT_THEORY","EPOCH","MEAN_MOTION","ECCENTRICITY","INCLINATION","RA_OF_ASC_NODE","ARG_OF_PERICENTER","MEAN_ANOMALY","EPHEMERIS_TYPE","CLASSIFICATION_TYPE","NORAD_CAT_ID","ELEMENT_SET_NO","REV_AT_EPOCH","BSTAR","MEAN_MOTION_DOT","MEAN_MOTION_DDOT","SEMIMAJOR_AXIS","PERIOD","APOAPSIS","PERIAPSIS","OBJECT_TYPE","RCS_SIZE","COUNTRY_CODE","LAUNCH_DATE","SITE","DECAY_DATE","FILE","GP_ID","TLE_LINE0","TLE_LINE1","TLE_LINE2"
"2.0","GENERATED VIA SPACE-TRACK.ORG API","2022-07-12T06:26:12","18 SPCS","CARTOSAT 3","2019-081A","EARTH","TEME","UTC","SGP4","2022-07-12T01:46:33.369312","15.19262347","0.00146190","97.3953","254.1496","127.1582","324.6904","0","U","44804","999","14537","0.00012867000000","0.00002652","0.0000000000000","6886.206","94.783","518.138","498.004","PAYLOAD","LARGE","IND","2019-11-27","SRI",null,"3511824","207939490","0 CARTOSAT 3","1 44804U 19081A   22193.07399733  .00002652  00000-0  12867-3 0  9999","2 44804  97.3953 254.1496 0014619 127.1582 324.6904 15.19262347145374"
"2.0","GENERATED VIA SPACE-TRACK.ORG API","2022-07-12T17:30:17","18 SPCS","CARTOSAT 3","2019-081A","EARTH","TEME","UTC","SGP4","2022-07-12T14:29:35.009088","15.19265357","0.00146210","97.3953","254.6684","125.3263","342.7715","0","U","44804","999","14545","0.00012955000000","0.00002671","0.0000000000000","6886.197","94.783","518.130","497.993","PAYLOAD","LARGE","IND","2019-11-27","SRI",null,"3512184","207966650","0 CARTOSAT 3","1 44804U 19081A   22193.60387742  .00002671  00000-0  12955-3 0  9994","2 44804  97.3953 254.6684 0014621 125.3263 342.7715 15.19265357145451"
"2.0","GENERATED VIA SPACE-TRACK.ORG API","2022-07-12T22:16:12","18 SPCS","CARTOSAT 3","2019-081A","EARTH","TEME","UTC","SGP4","2022-07-12T19:18:19.043712","15.19266493","0.00146340","97.3955","254.8647","124.7491","359.3077","0","U","44804","999","14548","0.00012994000000","0.00002679","0.0000000000000","6886.193","94.783","518.135","497.981","PAYLOAD","LARGE","IND","2019-11-27","SRI",null,"3512259","207972986","0 CARTOSAT 3","1 44804U 19081A   22193.80438708  .00002679  00000-0  12994-3 0  9996","2 44804  97.3955 254.8647 0014634 124.7491 359.3077 15.19266493145484"
"2.0","GENERATED VIA SPACE-TRACK.ORG API","2022-07-13T03:21:33","18 SPCS","CARTOSAT 3","2019-081A","EARTH","TEME","UTC","SGP4","2022-07-12T19:18:19.043712","15.19266493","0.00146340","97.3955","254.8647","124.7491","359.3077","0","U","44804","999","14548","0.00012994000000","0.00002679","0.0000000000000","6886.193","94.783","518.135","497.981","PAYLOAD","LARGE","IND","2019-11-27","SRI",null,"3512432","207996608","0 CARTOSAT 3","1 44804U 19081A   22193.80438708  .00002679  00000-0  12994-3 0  9996","2 44804  97.3955 254.8647 0014634 124.7491 359.3077 15.19266493145484"
"2.0","GENERATED VIA SPACE-TRACK.ORG API","2022-07-13T06:26:12","18 SPCS","CARTOSAT 3","2019-081A","EARTH","TEME","UTC","SGP4","2022-07-13T04:21:55.173312","15.19268415","0.00146720","97.3955","255.2345","123.7413","263.6901","0","U","44804","999","14554","0.00012858000000","0.00002650","0.0000000000000","6886.187","94.782","518.156","497.949","PAYLOAD","LARGE","IND","2019-11-27","SRI",null,"3512442","208002394","0 CARTOSAT 3","1 44804U 19081A   22194.18188858  .00002650  00000-0  12858-3 0  9994","2 44804  97.3955 255.2345 0014672 123.7413 263.6901 15.19268415145545"
"2.0","GENERATED VIA SPACE-TRACK.ORG API","2022-07-13T14:16:12","18 SPCS","CARTOSAT 3","2019-081A","EARTH","TEME","UTC","SGP4","2022-07-13T10:36:51.753024","15.19270144","0.00146700","97.3954","255.4894","122.8493","247.7727","0","U","44804","999","14558","0.00013041000000","0.00002689","0.0000000000000","6886.182","94.782","518.149","497.945","PAYLOAD","LARGE","IND","2019-11-27","SRI",null,"3512666","208007358","0 CARTOSAT 3","1 44804U 19081A   22194.44226566  .00002689  00000-0  13041-3 0  9999","2 44804  97.3954 255.4894 0014670 122.8493 247.7727 15.19270144145586"
"2.0","GENERATED VIA SPACE-TRACK.ORG API","2022-07-13T17:24:17","18 SPCS","CARTOSAT 3","2019-081A","EARTH","TEME","UTC","SGP4","2022-07-13T14:19:55.645248","15.19271029","0.00147000","97.3954","255.6412","122.1883","15.1332","0","U","44804","999","14560","0.00013002000000","0.00002681","0.0000000000000","6886.179","94.782","518.167","497.922","PAYLOAD","LARGE","IND","2019-11-27","SRI",null,"3512925","208032431","0 CARTOSAT 3","1 44804U 19081A   22194.59717182  .00002681  00000-0  13002-3 0  9993","2 44804  97.3954 255.6412 0014700 122.1883  15.1332 15.19271029145609"
"2.0","GENERATED VIA SPACE-TRACK.ORG API","2022-07-13T22:16:12","18 SPCS","CARTOSAT 3","2019-081A","EARTH","TEME","UTC","SGP4","2022-07-13T19:02:00.896352","15.19272090","0.00147180","97.3955","255.8330","121.5887","6.4678","0","U","44804","999","14563","0.00012979000000","0.00002676","0.0000000000000","6886.176","94.782","518.176","497.906","PAYLOAD","LARGE","IND","2019-11-27","SRI",null,"3512964","208039162","0 CARTOSAT 3","1 44804U 19081A   22194.79306593  .00002676  00000-0  12979-3 0  9991","2 44804  97.3955 255.8330 0014718 121.5887   6.4678 15.19272090145635"
"2.0","GENERATED VIA SPACE-TRACK.ORG API","2022-07-14T02:43:01","18 SPCS","CARTOSAT 3","2019-081A","EARTH","TEME","UTC","SGP4","2022-07-13T22:23:26.962944","15.19272946","0.00147870","97.3954","255.9700","121.3071","51.3471","0","U","44804","999","14565","0.00012997000000","0.00002680","0.0000000000000","6886.174","94.782","518.221","497.856","PAYLOAD","LARGE","IND","2019-11-27","SRI",null,"3513188","208064528","0 CARTOSAT 3","1 44804U 19081A   22194.93295096  .00002680  00000-0  12997-3 0  9997","2 44804  97.3954 255.9700 0014787 121.3071  51.3471 15.19272946145657"
"2.0","GENERATED VIA SPACE-TRACK.ORG API","2022-07-14T06:26:12","18 SPCS","CARTOSAT 3","2019-081A","EARTH","TEME","UTC","SGP4","2022-07-14T02:37:54.556608","15.19274227","0.00147840","97.3955","256.1432","120.7200","297.8050","0","U","44804","999","14568","0.00013139000000","0.00002710","0.0000000000000","6886.170","94.782","518.215","497.854","PAYLOAD","LARGE","IND","2019-11-27","SRI",null,"3513192","208070265","0 CARTOSAT 3","1 44804U 19081A   22195.10965922  .00002710  00000-0  13139-3 0  9992","2 44804  97.3955 256.1432 0014784 120.7200 297.8050 15.19274227145684"
"2.0","GENERATED VIA SPACE-TRACK.ORG API","2022-07-14T14:16:11","18 SPCS","CARTOSAT 3","2019-081A","EARTH","TEME","UTC","SGP4","2022-07-14T10:41:53.022912","15.19276591","0.00147610","97.3955","256.4722","119.6157","335.9645","0","U","44804","999","14573","0.00013403000000","0.00002766","0.0000000000000","6886.163","94.782","518.192","497.863","PAYLOAD","LARGE","IND","2019-11-27","SRI",null,"3513495","208076924","0 CARTOSAT 3","1 44804U 19081A   22195.44575258  .00002766  00000-0  13403-3 0  9993","2 44804  97.3955 256.4722 0014761 119.6157 335.9645 15.19276591145738"
"2.0","GENERATED VIA SPACE-TRACK.ORG API","2022-07-14T17:30:14","18 SPCS","CARTOSAT 3","2019-081A","EARTH","TEME","UTC","SGP4","2022-07-14T14:02:40.869600","15.19277345","0.00147720","97.3955","256.6087","118.9324","18.8279","0","U","44804","999","14575","0.00013349000000","0.00002755","0.0000000000000","6886.160","94.782","518.198","497.853","PAYLOAD","LARGE","IND","2019-11-27","SRI",null,"3513725","208102853","0 CARTOSAT 3","1 44804U 19081A   22195.58519525  .00002755  00000-0  13349-3 0  9990","2 44804  97.3955 256.6087 0014772 118.9324  18.8279 15.19277345145754"
"2.0","GENERATED VIA SPACE-TRACK.ORG API","2022-07-14T22:16:12","18 SPCS","CARTOSAT 3","2019-081A","EARTH","TEME","UTC","SGP4","2022-07-14T18:45:08.950176","15.19278760","0.00147710","97.3954","256.8009","118.2448","11.7010","0","U","44804","999","14578","0.00013503000000","0.00002788","0.0000000000000","6886.156","94.782","518.193","497.850","PAYLOAD","LARGE","IND","2019-11-27","SRI",null,"3513766","208107957","0 CARTOSAT 3","1 44804U 19081A   22195.78135359  .00002788  00000-0  13503-3 0  9999","2 44804  97.3954 256.8009 0014771 118.2448  11.7010 15.19278760145788"
"2.0","GENERATED VIA SPACE-TRACK.ORG API","2022-07-15T04:33:57","18 SPCS","CARTOSAT 3","2019-081A","EARTH","TEME","UTC","SGP4","2022-07-14T23:29:18.154176","15.19280373","0.00149150","97.3956","256.9943","117.9705","10.5624","0","U","44804","999","14581","0.00013734000000","0.00002837","0.0000000000000","6886.151","94.782","518.287","497.746","PAYLOAD","LARGE","IND","2019-11-27","SRI",null,"3513976","208131328","0 CARTOSAT 3","1 44804U 19081A   22195.97868234  .00002837  00000-0  13734-3 0  9996","2 44804  97.3956 256.9943 0014915 117.9705  10.5624 15.19280373145815"
"2.0","GENERATED VIA SPACE-TRACK.ORG API","2022-07-15T06:16:12","18 SPCS","CARTOSAT 3","2019-081A","EARTH","TEME","UTC","SGP4","2022-07-15T02:14:55.057920","15.19281219","0.00148970","97.3959","257.1069","117.5766","279.5952","0","U","44804","999","14583","0.00013830000000","0.00002857","0.0000000000000","6886.149","94.782","518.272","497.755","PAYLOAD","LARGE","IND","2019-11-27","SRI",null,"3513987","208138115","0 CARTOSAT 3","1 44804U 19081A   22196.09369280  .00002857  00000-0  13830-3 0  9996","2 44804  97.3959 257.1069 0014897 117.5766 279.5952 15.19281219145835"
"2.0","GENERATED VIA SPACE-TRACK.ORG API","2022-07-15T14:16:11","18 SPCS","CARTOSAT 3","2019-081A","EARTH","TEME","UTC","SGP4","2022-07-15T10:17:37.157856","15.19284156","0.00149410","97.3957","257.4352","116.4482","312.9570","0","U","44804","999","14588","0.00014532000000","0.00003006","0.0000000000000","6886.140","94.781","518.293","497.716","PAYLOAD","LARGE","IND","2019-11-27","SRI",null,"3514259","208144438","0 CARTOSAT 3","1 44804U 19081A   22196.42890229  .00003006  00000-0  14532-3 0  9992","2 44804  97.3957 257.4352 0014941 116.4482 312.9570 15.19284156145880"
